{
"type": "FeatureCollection",
"name": "aparcamientos",
"crs": { "type": "name", "properties": { "name": "urn:ogc:def:crs:OGC:1.3:CRS84" } },
"features": [
{ "type": "Feature", "properties": { "id": "P01", "nombre": "Centro Comercial 7 Palmas", "plazas": 1500, "lugar_texto": "Centro Comercial 7 Palmas, Las Palmas de Gran Canaria", "requisito": "Mínimo 4 ocupantes por vehículo", "lat": 28.1133726, "lon": -15.4489772 }, "geometry": { "type": "Point", "coordinates": [ -15.4489772, 28.1133726 ] } },
{ "type": "Feature", "properties": { "id": "P03", "nombre": "Infecar", "plazas": 400, "lugar_texto": "Infecar, Las Palmas de Gran Canaria", "requisito": "Mínimo 4 ocupantes por vehículo", "lat": 28.1068748, "lon": -15.4456735 }, "geometry": { "type": "Point", "coordinates": [ -15.4456735, 28.1068748 ] } }
]
}
