{
"type": "FeatureCollection",
"name": "cortes_trafico",
"crs": { "type": "name", "properties": { "name": "urn:ogc:def:crs:OGC:1.3:CRS84" } },
"features": [
{ "type": "Feature", "properties": { "id": "C01", "descripcion": "Corte GC-1 dirección Las Palmas", "fecha": "2026-06-11", "hora_inicio": "12:00", "hora_fin": "13:30", "tipo_impacto": "Alto", "via": "GC-1", "tramo": "Acceso a LPGC" }, "geometry": { "type": "LineString", "coordinates": [ [ -15.43, 27.99 ], [ -15.42, 28.03 ], [ -15.416, 28.07 ] ] } },
{ "type": "Feature", "properties": { "id": "C02", "descripcion": "Corte GC-3 dirección Las Palmas", "fecha": "2026-06-11", "hora_inicio": "17:30", "hora_fin": "18:30", "tipo_impacto": "Alto", "via": "GC-3", "tramo": "Circunvalación → LPGC" }, "geometry": { "type": "LineString", "coordinates": [ [ -15.46, 28.075 ], [ -15.445, 28.09 ], [ -15.435, 28.1 ] ] } },
{ "type": "Feature", "properties": { "id": "C03", "descripcion": "Cierre total de Siete Palmas (entorno del Estadio)", "fecha": "2026-06-11", "hora_inicio": "09:00", "hora_fin": "23:59", "tipo_impacto": "Alto", "via": "Siete Palmas", "tramo": "Entorno Estadio de Gran Canaria" }, "geometry": { "type": "LineString", "coordinates": [ [ -15.458, 28.097 ], [ -15.456, 28.1 ], [ -15.453, 28.102 ], [ -15.456, 28.099 ] ] } }
]
}
