{
"type": "FeatureCollection",
"name": "guaguas_impacto",
"crs": { "type": "name", "properties": { "name": "urn:ogc:def:crs:OGC:1.3:CRS84" } },
"features": [
{ "type": "Feature", "properties": { "id": "G01", "tipo": "Lanzadera Guaguas Municipales", "descripcion": "Lanzadera a Siete Palmas desde el Auditorio Alfredo Kraus", "fecha": "2026-06-11", "hora_inicio": "14:00", "hora_fin": "23:00", "alternativa": "Servicio directo al Estadio. Frecuencia reforzada.", "lat": 28.1302128, "lon": -15.4490139 }, "geometry": { "type": "Point", "coordinates": [ -15.4490139, 28.1302128 ] } },
{ "type": "Feature", "properties": { "id": "G02", "tipo": "Lanzadera Guaguas Municipales", "descripcion": "Lanzadera a Siete Palmas desde Santa Catalina", "fecha": "2026-06-11", "hora_inicio": "14:00", "hora_fin": "23:00", "alternativa": "Servicio directo al Estadio. Frecuencia reforzada.", "lat": 28.140578, "lon": -15.4300388 }, "geometry": { "type": "Point", "coordinates": [ -15.4300388, 28.140578 ] } },
{ "type": "Feature", "properties": { "id": "G03", "tipo": "Lanzadera Guaguas Municipales", "descripcion": "Lanzadera a Siete Palmas desde San Telmo / Pérez Galdós", "fecha": "2026-06-11", "hora_inicio": "14:00", "hora_fin": "23:00", "alternativa": "Servicio directo al Estadio. Frecuencia reforzada.", "lat": 28.1080455, "lon": -15.416995 }, "geometry": { "type": "Point", "coordinates": [ -15.416995, 28.1080455 ] } }
]
}
